[{"OBJECT_NAME":"ONEWEB-0353","OBJECT_ID":"2021-090D","EPOCH":"2026-05-25T03:31:41.947392","MEAN_MOTION":13.14502113,"ECCENTRICITY":0.000176,"INCLINATION":87.8944,"RA_OF_ASC_NODE":294.2991,"ARG_OF_PERICENTER":89.7892,"MEAN_ANOMALY":270.3439,"EPHEMERIS_TYPE":0,"CLASSIFICATION_TYPE":"U","NORAD_CAT_ID":49282,"ELEMENT_SET_NO":999,"REV_AT_EPOCH":22455,"BSTAR":-0.00027452,"MEAN_MOTION_DOT":-8.9e-07,"MEAN_MOTION_DDOT":0.0},{"OBJECT_NAME":"ONEWEB-0356","OBJECT_ID":"2021-090E","EPOCH":"2026-05-25T02:53:30.356736","MEAN_MOTION":13.20770793,"ECCENTRICITY":0.0002644,"INCLINATION":87.9175,"RA_OF_ASC_NODE":279.0332,"ARG_OF_PERICENTER":90.741,"MEAN_ANOMALY":269.4027,"EPHEMERIS_TYPE":0,"CLASSIFICATION_TYPE":"U","NORAD_CAT_ID":49283,"ELEMENT_SET_NO":999,"REV_AT_EPOCH":22678,"BSTAR":0.0005121,"MEAN_MOTION_DOT":2.21e-06,"MEAN_MOTION_DDOT":0.0},{"OBJECT_NAME":"ONEWEB-0358","OBJECT_ID":"2021-090F","EPOCH":"2026-05-24T22:08:36.027744","MEAN_MOTION":13.20769257,"ECCENTRICITY":0.0002051,"INCLINATION":87.9177,"RA_OF_ASC_NODE":279.0763,"ARG_OF_PERICENTER":101.9246,"MEAN_ANOMALY":258.2117,"EPHEMERIS_TYPE":0,"CLASSIFICATION_TYPE":"U","NORAD_CAT_ID":49284,"ELEMENT_SET_NO":999,"REV_AT_EPOCH":22748,"BSTAR":-0.00015246000000000001,"MEAN_MOTION_DOT":-4.9e-07,"MEAN_MOTION_DDOT":0.0},{"OBJECT_NAME":"ONEWEB-0359","OBJECT_ID":"2021-090G","EPOCH":"2026-05-24T22:05:00.921120","MEAN_MOTION":13.20771207,"ECCENTRICITY":0.0002081,"INCLINATION":87.9175,"RA_OF_ASC_NODE":279.0734,"ARG_OF_PERICENTER":106.1297,"MEAN_ANOMALY":254.0066,"EPHEMERIS_TYPE":0,"CLASSIFICATION_TYPE":"U","NORAD_CAT_ID":49285,"ELEMENT_SET_NO":999,"REV_AT_EPOCH":22746,"BSTAR":-0.00016422,"MEAN_MOTION_DOT":-5.4e-07,"MEAN_MOTION_DDOT":0.0},{"OBJECT_NAME":"ONEWEB-0360","OBJECT_ID":"2021-090H","EPOCH":"2026-05-24T21:50:27.559680","MEAN_MOTION":13.20772882,"ECCENTRICITY":0.000196,"INCLINATION":87.9175,"RA_OF_ASC_NODE":279.0815,"ARG_OF_PERICENTER":104.5957,"MEAN_ANOMALY":255.5393,"EPHEMERIS_TYPE":0,"CLASSIFICATION_TYPE":"U","NORAD_CAT_ID":49286,"ELEMENT_SET_NO":999,"REV_AT_EPOCH":22677,"BSTAR":-0.00011652,"MEAN_MOTION_DOT":-3.4e-07,"MEAN_MOTION_DDOT":0.0},{"OBJECT_NAME":"ONEWEB-0361","OBJECT_ID":"2021-090J","EPOCH":"2026-05-25T02:51:01.823904","MEAN_MOTION":13.20773845,"ECCENTRICITY":0.0002,"INCLINATION":87.9176,"RA_OF_ASC_NODE":279.038,"ARG_OF_PERICENTER":102.0201,"MEAN_ANOMALY":258.1156,"EPHEMERIS_TYPE":0,"CLASSIFICATION_TYPE":"U","NORAD_CAT_ID":49287,"ELEMENT_SET_NO":999,"REV_AT_EPOCH":22725,"BSTAR":0.00012266,"MEAN_MOTION_DOT":6.3e-07,"MEAN_MOTION_DDOT":0.0},{"OBJECT_NAME":"ONEWEB-0362","OBJECT_ID":"2021-090K","EPOCH":"2026-05-24T23:27:17.596800","MEAN_MOTION":13.19726482,"ECCENTRICITY":0.0001562,"INCLINATION":87.915,"RA_OF_ASC_NODE":309.6054,"ARG_OF_PERICENTER":98.588,"MEAN_ANOMALY":261.543,"EPHEMERIS_TYPE":0,"CLASSIFICATION_TYPE":"U","NORAD_CAT_ID":49288,"ELEMENT_SET_NO":999,"REV_AT_EPOCH":22385,"BSTAR":-0.00012503000000000001,"MEAN_MOTION_DOT":-3.7e-07,"MEAN_MOTION_DDOT":0.0},{"OBJECT_NAME":"ONEWEB-0363","OBJECT_ID":"2021-090L","EPOCH":"2026-05-25T03:12:57.988800","MEAN_MOTION":13.20676927,"ECCENTRICITY":0.0002128,"INCLINATION":87.9176,"RA_OF_ASC_NODE":279.0358,"ARG_OF_PERICENTER":97.5448,"MEAN_ANOMALY":262.5927,"EPHEMERIS_TYPE":0,"CLASSIFICATION_TYPE":"U","NORAD_CAT_ID":49289,"ELEMENT_SET_NO":999,"REV_AT_EPOCH":22726,"BSTAR":-0.025958,"MEAN_MOTION_DOT":-0.00010514,"MEAN_MOTION_DDOT":0.0},{"OBJECT_NAME":"ONEWEB-0364","OBJECT_ID":"2021-090M","EPOCH":"2026-05-25T02:19:31.106784","MEAN_MOTION":13.20770032,"ECCENTRICITY":0.0001899,"INCLINATION":87.9172,"RA_OF_ASC_NODE":279.0515,"ARG_OF_PERICENTER":100.09,"MEAN_ANOMALY":260.0448,"EPHEMERIS_TYPE":0,"CLASSIFICATION_TYPE":"U","NORAD_CAT_ID":49290,"ELEMENT_SET_NO":999,"REV_AT_EPOCH":22839,"BSTAR":-6.9983e-05,"MEAN_MOTION_DOT":-1.5e-07,"MEAN_MOTION_DDOT":0.0},{"OBJECT_NAME":"ONEWEB-0365","OBJECT_ID":"2021-090N","EPOCH":"2026-05-24T23:40:57.104256","MEAN_MOTION":13.19726547,"ECCENTRICITY":0.0001724,"INCLINATION":87.9161,"RA_OF_ASC_NODE":309.5901,"ARG_OF_PERICENTER":92.8479,"MEAN_ANOMALY":267.2851,"EPHEMERIS_TYPE":0,"CLASSIFICATION_TYPE":"U","NORAD_CAT_ID":49291,"ELEMENT_SET_NO":999,"REV_AT_EPOCH":22336,"BSTAR":-0.00016020000000000002,"MEAN_MOTION_DOT":-5.1e-07,"MEAN_MOTION_DDOT":0.0},{"OBJECT_NAME":"ONEWEB-0366","OBJECT_ID":"2021-090P","EPOCH":"2026-05-25T03:27:07.147008","MEAN_MOTION":13.14501306,"ECCENTRICITY":0.000186,"INCLINATION":87.8937,"RA_OF_ASC_NODE":294.3026,"ARG_OF_PERICENTER":98.9943,"MEAN_ANOMALY":261.1397,"EPHEMERIS_TYPE":0,"CLASSIFICATION_TYPE":"U","NORAD_CAT_ID":49292,"ELEMENT_SET_NO":999,"REV_AT_EPOCH":22453,"BSTAR":-0.00037547000000000004,"MEAN_MOTION_DOT":-1.26e-06,"MEAN_MOTION_DDOT":0.0},{"OBJECT_NAME":"ONEWEB-0367","OBJECT_ID":"2021-090Q","EPOCH":"2026-05-24T21:44:24.713376","MEAN_MOTION":13.20771554,"ECCENTRICITY":0.0001723,"INCLINATION":87.9178,"RA_OF_ASC_NODE":279.0818,"ARG_OF_PERICENTER":102.0099,"MEAN_ANOMALY":258.1228,"EPHEMERIS_TYPE":0,"CLASSIFICATION_TYPE":"U","NORAD_CAT_ID":49293,"ELEMENT_SET_NO":999,"REV_AT_EPOCH":22675,"BSTAR":-0.00021826000000000001,"MEAN_MOTION_DOT":-7.6e-07,"MEAN_MOTION_DDOT":0.0},{"OBJECT_NAME":"ONEWEB-0368","OBJECT_ID":"2021-090R","EPOCH":"2026-05-25T02:34:06.439008","MEAN_MOTION":13.2077123,"ECCENTRICITY":0.0002125,"INCLINATION":87.9164,"RA_OF_ASC_NODE":279.0548,"ARG_OF_PERICENTER":79.8411,"MEAN_ANOMALY":280.2962,"EPHEMERIS_TYPE":0,"CLASSIFICATION_TYPE":"U","NORAD_CAT_ID":49294,"ELEMENT_SET_NO":999,"REV_AT_EPOCH":22793,"BSTAR":-6.180400000000001e-06,"MEAN_MOTION_DOT":1e-07,"MEAN_MOTION_DDOT":0.0},{"OBJECT_NAME":"ONEWEB-0369","OBJECT_ID":"2021-090S","EPOCH":"2026-05-24T23:34:07.666752","MEAN_MOTION":13.19725953,"ECCENTRICITY":0.0001796,"INCLINATION":87.915,"RA_OF_ASC_NODE":309.6008,"ARG_OF_PERICENTER":91.2836,"MEAN_ANOMALY":268.8503,"EPHEMERIS_TYPE":0,"CLASSIFICATION_TYPE":"U","NORAD_CAT_ID":49295,"ELEMENT_SET_NO":999,"REV_AT_EPOCH":22335,"BSTAR":-0.00011702,"MEAN_MOTION_DOT":-3.4e-07,"MEAN_MOTION_DDOT":0.0},{"OBJECT_NAME":"ONEWEB-0370","OBJECT_ID":"2021-090T","EPOCH":"2026-05-24T21:57:43.878816","MEAN_MOTION":13.20772985,"ECCENTRICITY":0.0001804,"INCLINATION":87.9176,"RA_OF_ASC_NODE":279.08,"ARG_OF_PERICENTER":108.0979,"MEAN_ANOMALY":252.0351,"EPHEMERIS_TYPE":0,"CLASSIFICATION_TYPE":"U","NORAD_CAT_ID":49296,"ELEMENT_SET_NO":999,"REV_AT_EPOCH":22679,"BSTAR":-0.00018814,"MEAN_MOTION_DOT":-6.4e-07,"MEAN_MOTION_DDOT":0.0},{"OBJECT_NAME":"ONEWEB-0371","OBJECT_ID":"2021-090U","EPOCH":"2026-05-24T23:45:29.711808","MEAN_MOTION":13.19726879,"ECCENTRICITY":0.000169,"INCLINATION":87.9154,"RA_OF_ASC_NODE":309.5899,"ARG_OF_PERICENTER":94.663,"MEAN_ANOMALY":265.4696,"EPHEMERIS_TYPE":0,"CLASSIFICATION_TYPE":"U","NORAD_CAT_ID":49297,"ELEMENT_SET_NO":999,"REV_AT_EPOCH":22339,"BSTAR":-6.812800000000001e-05,"MEAN_MOTION_DOT":-1.4e-07,"MEAN_MOTION_DDOT":0.0}]