ONEWEB-0353             
1 49282U 21090D   26145.14701328 -.00000089  00000+0 -27452-3 0  9992
2 49282  87.8944 294.2991 0001760  89.7892 270.3439 13.14502113224557
ONEWEB-0356             
1 49283U 21090E   26145.12049024  .00000221  00000+0  51210-3 0  9994
2 49283  87.9175 279.0332 0002644  90.7410 269.4027 13.20770793226782
ONEWEB-0358             
1 49284U 21090F   26144.92263921 -.00000049  00000+0 -15246-3 0  9995
2 49284  87.9177 279.0763 0002051 101.9246 258.2117 13.20769257227484
ONEWEB-0359             
1 49285U 21090G   26144.92014955 -.00000054  00000+0 -16422-3 0  9990
2 49285  87.9175 279.0734 0002081 106.1297 254.0066 13.20771207227460
ONEWEB-0360             
1 49286U 21090H   26144.91004120 -.00000034  00000+0 -11652-3 0  9991
2 49286  87.9175 279.0815 0001960 104.5957 255.5393 13.20772882226773
ONEWEB-0361             
1 49287U 21090J   26145.11877111  .00000063  00000+0  12266-3 0  9995
2 49287  87.9176 279.0380 0002000 102.0201 258.1156 13.20773845227253
ONEWEB-0362             
1 49288U 21090K   26144.97728700 -.00000037  00000+0 -12503-3 0  9995
2 49288  87.9150 309.6054 0001562  98.5880 261.5430 13.19726482223856
ONEWEB-0363             
1 49289U 21090L   26145.13400450 -.00010514  00000+0 -25958-1 0  9991
2 49289  87.9176 279.0358 0002128  97.5448 262.5927 13.20676927227261
ONEWEB-0364             
1 49290U 21090M   26145.09688781 -.00000015  00000+0 -69983-4 0  9997
2 49290  87.9172 279.0515 0001899 100.0900 260.0448 13.20770032228399
ONEWEB-0365             
1 49291U 21090N   26144.98677204 -.00000051  00000+0 -16020-3 0  9996
2 49291  87.9161 309.5901 0001724  92.8479 267.2851 13.19726547223361
ONEWEB-0366             
1 49292U 21090P   26145.14383272 -.00000126  00000+0 -37547-3 0  9995
2 49292  87.8937 294.3026 0001860  98.9943 261.1397 13.14501306224532
ONEWEB-0367             
1 49293U 21090Q   26144.90584159 -.00000076  00000+0 -21826-3 0  9993
2 49293  87.9178 279.0818 0001723 102.0099 258.1228 13.20771554226753
ONEWEB-0368             
1 49294U 21090R   26145.10701897  .00000010  00000+0 -61804-5 0  9996
2 49294  87.9164 279.0548 0002125  79.8411 280.2962 13.20771230227938
ONEWEB-0369             
1 49295U 21090S   26144.98203318 -.00000034  00000+0 -11702-3 0  9994
2 49295  87.9150 309.6008 0001796  91.2836 268.8503 13.19725953223351
ONEWEB-0370             
1 49296U 21090T   26144.91509119 -.00000064  00000+0 -18814-3 0  9990
2 49296  87.9176 279.0800 0001804 108.0979 252.0351 13.20772985226791
ONEWEB-0371             
1 49297U 21090U   26144.98992722 -.00000014  00000+0 -68128-4 0  9993
2 49297  87.9154 309.5899 0001690  94.6630 265.4696 13.19726879223394
